[Satellite]
VERSION=1.1
NAME=LEASAT 5
NICKNAME=LEASAT 5
TLE1=1 20410U 90002B   15052.04161326 -.00000092  00000-0  00000+0 0  9995
TLE2=2 20410  11.1495  19.1176 0002516 220.2017 358.2784  1.00272287 77238
